[{"OBJECT_NAME":"KUIPER-00053","OBJECT_ID":"2025-134P","EPOCH":"2026-03-09T15:23:04.985088","MEAN_MOTION":14.79936457,"ECCENTRICITY":7.06e-5,"INCLINATION":51.9009,"RA_OF_ASC_NODE":223.311,"ARG_OF_PERICENTER":157.9369,"MEAN_ANOMALY":202.1623,"EPHEMERIS_TYPE":0,"CLASSIFICATION_TYPE":"U","NORAD_CAT_ID":64513,"ELEMENT_SET_NO":999,"REV_AT_EPOCH":4020,"BSTAR":0.00042309,"MEAN_MOTION_DOT":3.006e-5,"MEAN_MOTION_DDOT":0},{"OBJECT_NAME":"COSMOS 2251 DEB","OBJECT_ID":"1993-036YB","EPOCH":"2026-03-09T14:13:45.701184","MEAN_MOTION":14.85590963,"ECCENTRICITY":0.0021745,"INCLINATION":74.0605,"RA_OF_ASC_NODE":118.4079,"ARG_OF_PERICENTER":165.9213,"MEAN_ANOMALY":321.3345,"EPHEMERIS_TYPE":0,"CLASSIFICATION_TYPE":"U","NORAD_CAT_ID":34681,"ELEMENT_SET_NO":999,"REV_AT_EPOCH":90559,"BSTAR":0.0010634,"MEAN_MOTION_DOT":9.218e-5,"MEAN_MOTION_DDOT":0}]
